IRIDIUM 36 [-]          
1 24967U 97056C   23282.12547167  .00001260  00000+0  42352-3 0  9992
2 24967  86.3932  72.0561 0002019  95.5567 264.5860 14.36435956363606
IRIDIUM 39 [-]          
1 25042U 97069D   23281.79152742  .00001355  00000+0  36349-3 0  9998
2 25042  86.3875 115.5579 0017517 200.2467 159.8043 14.47394480359604
IRIDIUM 38 [-]          
1 25043U 97069E   23281.86475082  .00000816  00000+0  26926-3 0  9993
2 25043  86.3948 132.6855 0002579  32.5966 327.5390 14.36904520357534
IRIDIUM 42 [-]          
1 25077U 97077A   23282.31673227  .00000715  00000+0  24329-3 0  9994
2 25077  86.3963 137.9119 0001966  68.2370 291.9036 14.35219846352684
IRIDIUM 44 [-]          
1 25078U 97077B   23282.11028117  .00000920  00000+0  29204-3 0  9990
2 25078  86.3921 121.5845 0000436 140.6891 219.4339 14.39006424354951
IRIDIUM 45 [-]          
1 25104U 97082A   23281.65953194  .00016134  00000+0  10333-2 0  9992
2 25104  86.3802 340.0974 0182100  73.3431 288.7702 14.95670714359028
IRIDIUM 24 [-]          
1 25105U 97082B   23281.88276261  .00000971  00000+0  29757-3 0  9994
2 25105  86.3947 341.7043 0010045 324.2945  35.7582 14.40764524354293
IRIDIUM 51 [-]          
1 25262U 98018A   23282.12449547  .00017297  00000+0  95822-3 0  9990
2 25262  86.3966 350.4232 0166543  26.9046 334.0701 15.02522035353686
